$$SOE
2459580.500000000, A.D. 2022-Jan-01 00:00:00.0000, -2.998445023614768E+08, -7.400526930403022E+07, -1.073762111664435E+07,
2459587.500000000, A.D. 2022-Jan-08 00:00:00.0000, -2.967796019757726E+08, -8.666045434977880E+07, -1.073882449530733E+07,
2459594.500000000, A.D. 2022-Jan-15 00:00:00.0000, -2.932282029678894E+08, -9.917357825379781E+07, -1.072242177916595E+07,
2459601.500000000, A.D. 2022-Jan-22 00:00:00.0000, -2.891978463556987E+08, -1.115247124077469E+08, -1.068850326608100E+07,
2459608.500000000, A.D. 2022-Jan-29 00:00:00.0000, -2.846969805564796E+08, -1.236944020939081E+08, -1.063719375046853E+07,
2459615.500000000, A.D. 2022-Feb-05 00:00:00.0000, -2.797349270751745E+08, -1.356637145505951E+08, -1.056865153384013E+07,
2459622.500000000, A.D. 2022-Feb-12 00:00:00.0000, -2.743218411948328E+08, -1.474142848116706E+08, -1.048306759879945E+07,
2459629.500000000, A.D. 2022-Feb-19 00:00:00.0000, -2.684686693378296E+08, -1.589283567691064E+08, -1.038066464118909E+07,
2459636.500000000, A.D. 2022-Feb-26 00:00:00.0000, -2.621871047572454E+08, -1.701888200386397E+08, -1.026169590944620E+07,
2459643.500000000, A.D. 2022-Mar-05 00:00:00.0000, -2.554895417541615E+08, -1.811792431462804E+08, -1.012644392805286E+07,
2459650.500000000, A.D. 2022-Mar-12 00:00:00.0000, -2.483890285613064E+08, -1.918839030403426E+08, -9.975219143371791E+06,
2459657.500000000, A.D. 2022-Mar-19 00:00:00.0000, -2.408992191799962E+08, -2.022878108690849E+08, -9.808358507372752E+06,
2459664.500000000, A.D. 2022-Mar-26 00:00:00.0000, -2.330343244881674E+08, -2.123767340277465E+08, -9.626224011558205E+06,
2459671.500000000, A.D. 2022-Apr-02 00:00:00.0000, -2.248090628707906E+08, -2.221372145665915E+08, -9.429201191843882E+06,
2459678.500000000, A.D. 2022-Apr-09 00:00:00.0000, -2.162386104060306E+08, -2.315565840341415E+08, -9.217697640808687E+06,
2459685.500000000, A.D. 2022-Apr-16 00:00:00.0000, -2.073385505496714E+08, -2.406229742170917E+08, -8.992141520063832E+06,
2459692.500000000, A.D. 2022-Apr-23 00:00:00.0000, -1.981248248768885E+08, -2.493253228297387E+08, -8.752979880688190E+06,
2459699.500000000, A.D. 2022-Apr-30 00:00:00.0000, -1.886136870206108E+08, -2.576533765483860E+08, -8.500676814777166E+06,
2459706.500000000, A.D. 2022-May-07 00:00:00.0000, -1.788216569865327E+08, -2.655976935291276E+08, -8.235711889691517E+06,
2459713.500000000, A.D. 2022-May-14 00:00:00.0000, -1.687654746709208E+08, -2.731496425479028E+08, -7.958578751891553E+06,
2459720.500000000, A.D. 2022-May-21 00:00:00.0000, -1.584620547978461E+08, -2.803013981888366E+08, -7.669783658458501E+06,
2459727.500000000, A.D. 2022-May-28 00:00:00.0000, -1.479284439103820E+08, -2.870459332317320E+08, -7.369843976470292E+06,
2459734.500000000, A.D. 2022-Jun-04 00:00:00.0000, -1.371817792660700E+08, -2.933770087519334E+08, -7.059286706831887E+06,
2459741.500000000, A.D. 2022-Jun-11 00:00:00.0000, -1.262392495946050E+08, -2.992891621409447E+08, -6.738647051502794E+06,
2459748.500000000, A.D. 2022-Jun-18 00:00:00.0000, -1.151180577633211E+08, -3.047776932533090E+08, -6.408467032202601E+06,
2459755.500000000, A.D. 2022-Jun-25 00:00:00.0000, -1.038353853900119E+08, -3.098386489319565E+08, -6.069294170624197E+06,
2459762.500000000, A.D. 2022-Jul-02 00:00:00.0000, -9.240835932075615E+07, -3.144688061899375E+08, -5.721680251299709E+06,
2459769.500000000, A.D. 2022-Jul-09 00:00:00.0000, -8.085401961503188E+07, -3.186656540745224E+08, -5.366180190978885E+06,
2459776.500000000, A.D. 2022-Jul-16 00:00:00.0000, -6.918928910699821E+07, -3.224273733238759E+08, -5.003350922635704E+06,
2459783.500000000, A.D. 2022-Jul-23 00:00:00.0000, -5.743094673691133E+07, -3.257528139203666E+08, -4.633750087086454E+06,
2459790.500000000, A.D. 2022-Jul-30 00:00:00.0000, -4.559560454678433E+07, -3.286414740665019E+08, -4.257934814654797E+06,
2459797.500000000, A.D. 2022-Aug-06 00:00:00.0000, -3.369968470637489E+07, -3.310934801017585E+08, -3.876460874202922E+06,
2459804.500000000, A.D. 2022-Aug-13 00:00:00.0000, -2.175939734802826E+07, -3.331095647635166E+08, -3.489881888324901E+06,
2459811.500000000, A.D. 2022-Aug-20 00:00:00.0000, -9.790720725725962E+06, -3.346910444404607E+08, -3.098748510749310E+06,
2459818.500000000, A.D. 2022-Aug-27 00:00:00.0000, 2.190616432102837E+06, -3.358397962779770E+08, -2.703607630129680E+06,
2459825.500000000, A.D. 2022-Sep-03 00:00:00.0000, 1.416915069268039E+07, -3.365582353671697E+08, -2.305001630366534E+06,
2459832.500000000, A.D. 2022-Sep-10 00:00:00.0000, 2.612969797667483E+07, -3.368492921024024E+08, -1.903467712175637E+06,
2459839.500000000, A.D. 2022-Sep-17 00:00:00.0000, 3.805736601365256E+07, -3.367163898075558E+08, -1.499537277233928E+06,
2459846.500000000, A.D. 2022-Sep-24 00:00:00.0000, 4.993756533979551E+07, -3.361634227725817E+08, -1.093735382813185E+06,
2459853.500000000, A.D. 2022-Oct-01 00:00:00.0000, 6.175601916255062E+07, -3.351947348049945E+08, -6.865802884794921E+05,
2459860.500000000, A.D. 2022-Oct-08 00:00:00.0000, 7.349877258391504E+07, -3.338150978460328E+08, -2.785830871182233E+05,
2459867.500000000, A.D. 2022-Oct-15 00:00:00.0000, 8.515220033484311E+07, -3.320296895129541E+08, 1.297527655158192E+05,
2459874.500000000, A.D. 2022-Oct-22 00:00:00.0000, 9.670301092342575E+07, -3.298440713004202E+08, 5.379320872825682E+05,
2459881.500000000, A.D. 2022-Oct-29 00:00:00.0000, 1.081382497799053E+08, -3.272641700746301E+08, 9.454683329551816E+05,
2459888.500000000, A.D. 2022-Nov-05 00:00:00.0000, 1.194453035829644E+08, -3.242962601554248E+08, 1.351883717872426E+06,
2459895.500000000, A.D. 2022-Nov-12 00:00:00.0000, 1.306119038846488E+08, -3.209469447502384E+08, 1.756709388141334E+06,
2459902.500000000, A.D. 2022-Nov-19 00:00:00.0000, 1.416261293938512E+08, -3.172231377176636E+08, 2.159485627865762E+06,
2459909.500000000, A.D. 2022-Nov-26 00:00:00.0000, 1.524764072574011E+08, -3.131320460756593E+08, 2.559762049392506E+06,
2459916.500000000, A.D. 2022-Dec-03 00:00:00.0000, 1.631515135780537E+08, -3.086811532790179E+08, 2.957097753038496E+06,
2459923.500000000, A.D. 2022-Dec-10 00:00:00.0000, 1.736405732828413E+08, -3.038782032553499E+08, 3.351061456261739E+06,
2459930.500000000, A.D. 2022-Dec-17 00:00:00.0000, 1.839330594285171E+08, -2.987311852253032E+08, 3.741231590206146E+06,
2459937.500000000, A.D. 2022-Dec-24 00:00:00.0000, 1.940187921119029E+08, -2.932483193654876E+08, 4.127196349931672E+06,
2459944.500000000, A.D. 2022-Dec-31 00:00:00.0000, 2.038879374010700E+08, -2.874380431939250E+08, 4.508553675801605E+06,
2459951.500000000, A.D. 2023-Jan-07 00:00:00.0000, 2.135310064696112E+08, -2.813089977020304E+08, 4.884911234945118E+06,
2459958.500000000, A.D. 2023-Jan-14 00:00:00.0000, 2.229388530260279E+08, -2.748700127242745E+08, 5.255886625498459E+06,
2459965.500000000, A.D. 2023-Jan-21 00:00:00.0000, 2.321026684484279E+08, -2.681300947065485E+08, 5.621107605352908E+06,
2459972.500000000, A.D. 2023-Jan-28 00:00:00.0000, 2.410139783425170E+08, -2.610984170565516E+08, 5.980211995150656E+06,
2459979.500000000, A.D. 2023-Feb-04 00:00:00.0000, 2.496646403594604E+08, -2.537843100359774E+08, 6.332847524508670E+06,
2459986.500000000, A.D. 2023-Feb-11 00:00:00.0000, 2.580468415180711E+08, -2.461972503722705E+08, 6.678671772460327E+06,
2459993.500000000, A.D. 2023-Feb-18 00:00:00.0000, 2.661530950042113E+08, -2.383468513928322E+08, 7.017352142309099E+06,
2460000.500000000, A.D. 2023-Feb-25 00:00:00.0000, 2.739762367445439E+08, -2.302428538207210E+08, 7.348565834996253E+06,
2460007.500000000, A.D. 2023-Mar-04 00:00:00.0000, 2.815094218895800E+08, -2.218951171896722E+08, 7.671999814525306E+06,
2460014.500000000, A.D. 2023-Mar-11 00:00:00.0000, 2.887461212650681E+08, -2.133136118546954E+08, 7.987350764205635E+06,
2460021.500000000, A.D. 2023-Mar-18 00:00:00.0000, 2.956801178658030E+08, -2.045084116240691E+08, 8.294325026464134E+06,
2460028.500000000, A.D. 2023-Mar-25 00:00:00.0000, 3.023055036192338E+08, -1.954896870342861E+08, 8.592638504520603E+06,
2460035.500000000, A.D. 2023-Apr-01 00:00:00.0000, 3.086166768680537E+08, -1.862676988478508E+08, 8.882016520216443E+06,
2460042.500000000, A.D. 2023-Apr-08 00:00:00.0000, 3.146083399826002E+08, -1.768527905259119E+08, 9.162193786344573E+06,
2460049.500000000, A.D. 2023-Apr-15 00:00:00.0000, 3.202754947879341E+08, -1.672553807621435E+08, 9.432914618960842E+06,
2460056.500000000, A.D. 2023-Apr-22 00:00:00.0000, 3.256134376296218E+08, -1.574859591065828E+08, 9.693932974778093E+06,
2460063.500000000, A.D. 2023-Apr-29 00:00:00.0000, 3.306177568274806E+08, -1.475550824000368E+08, 9.945012247213058E+06,
2460070.500000000, A.D. 2023-May-06 00:00:00.0000, 3.352843307731893E+08, -1.374733702133131E+08, 1.018592512885731E+07,
2460077.500000000, A.D. 2023-May-13 00:00:00.0000, 3.396093257098172E+08, -1.272515001618996E+08, 1.041645355767026E+07,
2460084.500000000, A.D. 2023-May-20 00:00:00.0000, 3.435891934400966E+08, -1.169002035643236E+08, 1.063638868578534E+07,
2460091.500000000, A.D. 2023-May-27 00:00:00.0000, 3.472206691681445E+08, -1.064302614506387E+08, 1.084553085114489E+07,
2460098.500000000, A.D. 2023-Jun-03 00:00:00.0000, 3.505007695424806E+08, -9.585250087220266E+07, 1.104368954912955E+07,
2460105.500000000, A.D. 2023-Jun-10 00:00:00.0000, 3.534267909335593E+08, -8.517779150418507E+07, 1.123068340118212E+07,
2460112.500000000, A.D. 2023-Jun-17 00:00:00.0000, 3.559963080426484E+08, -7.441704257948834E+07, 1.140634010749137E+07,
2460119.500000000, A.D. 2023-Jun-24 00:00:00.0000, 3.582071731663741E+08, -6.358120007675596E+07, 1.157049635864883E+07,
2460126.500000000, A.D. 2023-Jul-01 00:00:00.0000, 3.600575163730474E+08, -5.268124330952981E+07, 1.172299775054229E+07,
2460133.500000000, A.D. 2023-Jul-08 00:00:00.0000, 3.615457449253957E+08, -4.172818006972326E+07, 1.186369892414324E+07,
2460140.500000000, A.D. 2023-Jul-15 00:00:00.0000, 3.626705406823518E+08, -3.073304313624517E+07, 1.199246381692198E+07,
$$EOE